METHANESAT              
1 59101U 24043D   25134.79100870  .00001911  00000+0  17895-3 0  9990
2 59101  97.7966 261.0351 0009563 258.1322 101.8827 14.95227961 65066
